STARLINK-38005          
1 69677U 26145A   26204.83335647 -.02343615  00000+0 -38427-1 0  9996
2 69677  97.2841  52.0275 0001882 112.9977 194.2082 15.56007282  5810
STARLINK-38009          
1 69678U 26145B   26204.83335647 -.02388024  00000+0 -40791-1 0  9997
2 69678  97.2838  52.0365 0002014 119.5268 206.8537 15.54974323  5813
STARLINK-37998          
1 69679U 26145C   26204.83335647 -.01396837  00000+0 -13955-1 0  9990
2 69679  97.2847  52.0915 0001635  69.4167  22.4366 15.68567587  5811
STARLINK-37994          
1 69680U 26145D   26204.83335647 -.01406660  00000+0 -21574-1 0  9994
2 69680  97.2980  52.0353 0001492  99.2409 225.2705 15.57181826  5814
STARLINK-37992          
1 69681U 26145E   26204.83335647 -.02516312  00000+0 -41099-1 0  9996
2 69681  97.2841  52.0434 0001860 102.5536 242.5215 15.56394749  5816
STARLINK-37997          
1 69682U 26145F   26204.83335647 -.02564903  00000+0 -40597-1 0  9998
2 69682  97.2837  52.0522 0001307  98.9554 270.0633 15.57319426  5814
STARLINK-37990          
1 69683U 26145G   26204.83335647 -.01321136  00000+0 -20232-1 0  9991
2 69683  97.2981  52.0325 0001868  89.2475 229.7188 15.57039933  5811
STARLINK-37951          
1 69684U 26145H   26204.74834904  .00320102  00000+0  20501-2 0  9991
2 69684  97.2851  52.0143 0001340 134.6982 225.4393 15.75386110  4529
STARLINK-37957          
1 69685U 26145J   26204.83335647 -.01073759  00000+0 -16327-1 0  9998
2 69685  97.2840  52.0538 0001534 100.3281 260.0480 15.57113668  5814
STARLINK-37968          
1 69686U 26145K   26204.83335647  .00039513  00000+0  72547-3 0  9994
2 69686  97.2850  52.0062 0001586  70.8266 184.9410 15.49152112  5814
STARLINK-37977          
1 69687U 26145L   26204.83335647 -.01639791  00000+0 -28053-1 0  9993
2 69687  97.2846  52.0546 0001628  72.9633 284.5520 15.54202145  5812
STARLINK-37908          
1 69688U 26145M   26204.83335647 -.02341611  00000+0 -34772-1 0  9991
2 69688  97.2842  52.0902 0001415  87.8229 355.7709 15.58646169  5817
STARLINK-37979          
1 69689U 26145N   26204.83335647 -.03421545  00000+0 -65408-1 0  9998
2 69689  97.2845  52.0302 0001751 101.4725 202.0567 15.52037783  5818
STARLINK-37940          
1 69690U 26145P   26204.83335647 -.02442926  00000+0 -32511-1 0  9994
2 69690  97.2843  52.0963 0001611  90.2290  16.3285 15.61651605  5816
STARLINK-37961          
1 69691U 26145Q   26204.83335647 -.02844275  00000+0 -53932-1 0  9998
2 69691  97.2852  52.0613 0001784  60.0724 319.6036 15.52168716  5816
STARLINK-37787          
1 69692U 26145R   26204.83335647 -.02380679  00000+0 -33792-1 0  9994
2 69692  97.2847  52.0978 0001772  69.1417  35.3484 15.59885747  5817
STARLINK-37962          
1 69693U 26145S   26204.83335647 -.02313458  00000+0 -30883-1 0  9994
2 69693  97.2845  52.1115 0001592  53.9032  83.4466 15.61375018  5816
STARLINK-37953          
1 69694U 26145T   26204.83335647 -.00758728  00000+0 -14881-1 0  9996
2 69694  97.2848  52.0517 0002619  98.4233 261.4214 15.49645061  5816
STARLINK-37926          
1 69695U 26145U   26204.83335647 -.02629480  00000+0 -50917-1 0  9991
2 69695  97.2850  52.0578 0001667 100.0868 273.4368 15.51277837  5811
STARLINK-37959          
1 69696U 26145V   26204.83335647 -.00770592  00000+0 -10700-1 0  9997
2 69696  97.2846  52.1063 0001553  71.1911  51.6627 15.59501111  5815
STARLINK-37976          
1 69697U 26145W   26204.83335647 -.01836084  00000+0 -29882-1 0  9999
2 69697  97.2848  52.1032 0001786  90.6411  22.5972 15.55916405  5815
STARLINK-37912          
1 69698U 26145X   26204.83335647 -.01530286  00000+0 -14417-1 0  9993
2 69698  97.2844  52.1485 0001505 105.5388 121.2551 15.69776735  5817
STARLINK-37974          
1 69699U 26145Y   26204.83335647 -.02279407  00000+0 -32677-1 0  9998
2 69699  97.2850  52.1216 0001557  73.6720  81.1597 15.59472288  5818
STARLINK-37955          
1 69700U 26145Z   26204.83335647 -.02250172  00000+0 -35493-1 0  9998
2 69700  97.2843  52.1063 0001501  88.7645  33.0536 15.56900715  5812
STRIX-8                 
1 69701U 26146A   26204.71664738  .00004580  00000+0  33477-3 0  9991
2 69701  41.9902 325.8863 0006295  86.8038 273.3509 15.04491408  4065
ELECTRON R/B            
1 69702U 26146B   26204.51747676  .00748938  21245-3  14546-2 0  9998
2 69702  42.0717 311.0887 0141144  79.2986 282.3728 15.83861236  4224
ELECTRON KICK STAGE R/B 
1 69703U 26146C   26204.64109029  .00003846  00000+0  27955-3 0  9990
2 69703  41.9885 326.1803 0008175  85.4596 274.7165 15.04992357  4059
STARLINK-38055          
1 69704U 26147A   26204.83335647 -.02381108  00000+0 -31192-1 0  9990
2 69704  97.2849 241.6700 0001872  76.2945 111.9282 15.61958996  5129
STARLINK-37898          
1 69705U 26147B   26204.83335647 -.02496529  00000+0 -41354-1 0  9996
2 69705  97.2844 241.6333 0001878  66.2543  45.0267 15.55984015  5120
STARLINK-37970          
1 69706U 26147C   26204.83335647 -.02380150  00000+0 -39654-1 0  9999
2 69706  97.2844 241.6318 0001667  48.2428  57.2824 15.55639688  5129
